start=new Date('2023-06-26T00:00:00.000Z').valueOf();
sats=[{"MEAN_ANOMALY":"266.1234","LAUNCH_DATE":"2022-04-29","PERIAPSIS":"539.116","DECAY_DATE":null,"ARG_OF_PERICENTER":"93.9862","RA_OF_ASC_NODE":"318.8569","MEAN_MOTION_DDOT":"0.0000000000000","ELEMENT_SET_NO":"999","TLE_LINE1":"1 52363U 22045AJ  23175.70257962  .00000085  00000-0  23434-4 0  9991","NORAD_CAT_ID":"52363","GP_ID":"234532391","TIME_SYSTEM":"UTC","SEMIMAJOR_AXIS":"6917.880","FILE":"3941912","OBJECT_ID":"2022-045AJ","EPOCH":"2023-06-24T16:51:42.879168","MEAN_ELEMENT_THEORY":"SGP4","APOAPSIS":"540.375","OBJECT_TYPE":"PAYLOAD","TLE_LINE2":"2 52363  53.2190 318.8569 0000910  93.9862 266.1234 15.08840055 66482","MEAN_MOTION_DOT":"0.00000085","REF_FRAME":"TEME","PERIOD":"95.438","CENTER_NAME":"EARTH","MEAN_MOTION":"15.08840055","EPHEMERIS_TYPE":"0","COUNTRY_CODE":"US","SITE":"AFETR","ECCENTRICITY":"0.00009100","RCS_SIZE":"LARGE","CLASSIFICATION_TYPE":"U","BSTAR":"0.00002343400000","INCLINATION":"53.2190","OBJECT_NAME":"STARLINK-3830","REV_AT_EPOCH":"6648"},{"MEAN_ELEMENT_THEORY":"SGP4","EPOCH":"2023-06-25T16:01:24.728448","OBJECT_TYPE":"PAYLOAD","TLE_LINE2":"2 52364  53.2168 304.4383 0001121  87.5832 272.5288 15.08860214 66764","APOAPSIS":"540.459","CENTER_NAME":"EARTH","PERIOD":"95.436","REF_FRAME":"TEME","MEAN_MOTION_DOT":"0.00011062","ECCENTRICITY":"0.00011210","SITE":"AFETR","COUNTRY_CODE":"US","EPHEMERIS_TYPE":"0","MEAN_MOTION":"15.08860214","RCS_SIZE":"LARGE","CLASSIFICATION_TYPE":"U","BSTAR":"0.00071164000000","INCLINATION":"53.2168","REV_AT_EPOCH":"6676","OBJECT_NAME":"STARLINK-3820","MEAN_ANOMALY":"272.5288","ARG_OF_PERICENTER":"87.5832","DECAY_DATE":null,"PERIAPSIS":"538.908","LAUNCH_DATE":"2022-04-29","RA_OF_ASC_NODE":"304.4383","ELEMENT_SET_NO":"999","MEAN_MOTION_DDOT":"0.0000000000000","TLE_LINE1":"1 52364U 22045AK  23176.66764732  .00011062  00000-0  71164-3 0  9995","NORAD_CAT_ID":"52364","GP_ID":"234553085","SEMIMAJOR_AXIS":"6917.819","TIME_SYSTEM":"UTC","OBJECT_ID":"2022-045AK","FILE":"3942777"},{"NORAD_CAT_ID":"52365","GP_ID":"234545938","TLE_LINE1":"1 52365U 22045AL  23176.35853724  .00000165  00000-0  28431-4 0  9994","FILE":"3942504","OBJECT_ID":"2022-045AL","TIME_SYSTEM":"UTC","SEMIMAJOR_AXIS":"6917.871","LAUNCH_DATE":"2022-04-29","PERIAPSIS":"539.072","DECAY_DATE":null,"ARG_OF_PERICENTER":"99.3781","MEAN_ANOMALY":"260.7320","MEAN_MOTION_DDOT":"0.0000000000000","ELEMENT_SET_NO":"999","RA_OF_ASC_NODE":"305.9136","CLASSIFICATION_TYPE":"U","RCS_SIZE":"LARGE","OBJECT_NAME":"STARLINK-3874","REV_AT_EPOCH":"6671","INCLINATION":"53.2170","BSTAR":"0.00002843100000","APOAPSIS":"540.400","TLE_LINE2":"2 52365  53.2170 305.9136 0000960  99.3781 260.7320 15.08843131 66714","OBJECT_TYPE":"PAYLOAD","EPOCH":"2023-06-25T08:36:17.617536","MEAN_ELEMENT_THEORY":"SGP4","MEAN_MOTION":"15.08843131","EPHEMERIS_TYPE":"0","COUNTRY_CODE":"US","SITE":"AFETR","ECCENTRICITY":"0.00009600","MEAN_MOTION_DOT":"0.00000165","REF_FRAME":"TEME","PERIOD":"95.437","CENTER_NAME":"EARTH"},{"ELEMENT_SET_NO":"999","MEAN_MOTION_DDOT":"0.0000000000000","RA_OF_ASC_NODE":"304.5104","ARG_OF_PERICENTER":"93.2124","PERIAPSIS":"539.178","DECAY_DATE":null,"LAUNCH_DATE":"2022-04-29","MEAN_ANOMALY":"266.8959","OBJECT_ID":"2022-045AM","FILE":"3942777","SEMIMAJOR_AXIS":"6917.862","TIME_SYSTEM":"UTC","GP_ID":"234552596","NORAD_CAT_ID":"52366","TLE_LINE1":"1 52366U 22045AM  23176.67133379  .00001780  00000-0  12989-3 0  9991","ECCENTRICITY":"0.00007930","SITE":"AFETR","COUNTRY_CODE":"US","EPHEMERIS_TYPE":"0","MEAN_MOTION":"15.08846051","CENTER_NAME":"EARTH","PERIOD":"95.437","REF_FRAME":"TEME","MEAN_MOTION_DOT":"0.00001780","TLE_LINE2":"2 52366  53.2168 304.5104 0000793  93.2124 266.8959 15.08846051 66764","OBJECT_TYPE":"PAYLOAD","APOAPSIS":"540.275","MEAN_ELEMENT_THEORY":"SGP4","EPOCH":"2023-06-25T16:06:43.239456","REV_AT_EPOCH":"6676","OBJECT_NAME":"STARLINK-3808","INCLINATION":"53.2168","BSTAR":"0.00012989000000","CLASSIFICATION_TYPE":"U","RCS_SIZE":"LARGE"},{"OBJECT_ID":"2022-045AN","FILE":"3942505","SEMIMAJOR_AXIS":"6917.885","TIME_SYSTEM":"UTC","GP_ID":"234545946","NORAD_CAT_ID":"52367","TLE_LINE1":"1 52367U 22045AN  23176.34749901  .00000953  00000-0  77933-4 0  9992","ELEMENT_SET_NO":"999","MEAN_MOTION_DDOT":"0.0000000000000","RA_OF_ASC_NODE":"305.9618","ARG_OF_PERICENTER":"84.3281","PERIAPSIS":"539.173","DECAY_DATE":null,"LAUNCH_DATE":"2022-04-29","MEAN_ANOMALY":"275.7807","REV_AT_EPOCH":"6671","OBJECT_NAME":"STARLINK-3817","INCLINATION":"53.2160","BSTAR":"0.00007793300000","CLASSIFICATION_TYPE":"U","RCS_SIZE":"LARGE","ECCENTRICITY":"0.00008340","SITE":"AFETR","COUNTRY_CODE":"US","EPHEMERIS_TYPE":"0","MEAN_MOTION":"15.08838568","CENTER_NAME":"EARTH","PERIOD":"95.438","REF_FRAME":"TEME","MEAN_MOTION_DOT":"0.00000953","TLE_LINE2":"2 52367  53.2160 305.9618 0000834  84.3281 275.7807 15.08838568 66713","OBJECT_TYPE":"PAYLOAD","APOAPSIS":"540.327","MEAN_ELEMENT_THEORY":"SGP4","EPOCH":"2023-06-25T08:20:23.914464"},{"ECCENTRICITY":"0.00007730","SITE":"AFETR","COUNTRY_CODE":"US","EPHEMERIS_TYPE":"0","MEAN_MOTION":"15.08845553","CENTER_NAME":"EARTH","PERIOD":"95.437","MEAN_MOTION_DOT":"0.00001459","REF_FRAME":"TEME","OBJECT_TYPE":"PAYLOAD","TLE_LINE2":"2 52368  53.2167 304.5551 0000773  81.3291 278.7789 15.08845553 66750","APOAPSIS":"540.263","MEAN_ELEMENT_THEORY":"SGP4","EPOCH":"2023-06-25T15:50:49.352352","REV_AT_EPOCH":"6675","OBJECT_NAME":"STARLINK-3834","INCLINATION":"53.2167","BSTAR":"0.00010970000000","CLASSIFICATION_TYPE":"U","RCS_SIZE":"LARGE","ELEMENT_SET_NO":"999","MEAN_MOTION_DDOT":"0.0000000000000","RA_OF_ASC_NODE":"304.5551","ARG_OF_PERICENTER":"81.3291","DECAY_DATE":null,"PERIAPSIS":"539.194","LAUNCH_DATE":"2022-04-29","MEAN_ANOMALY":"278.7789","OBJECT_ID":"2022-045AP","FILE":"3942777","SEMIMAJOR_AXIS":"6917.863","TIME_SYSTEM":"UTC","NORAD_CAT_ID":"52368","GP_ID":"234552587","TLE_LINE1":"1 52368U 22045AP  23176.66029343  .00001459  00000-0  10970-3 0  9998"},{"BSTAR":"0.00019291000000","INCLINATION":"53.2168","REV_AT_EPOCH":"6676","OBJECT_NAME":"STARLINK-3841","RCS_SIZE":"LARGE","CLASSIFICATION_TYPE":"U","CENTER_NAME":"EARTH","PERIOD":"95.437","MEAN_MOTION_DOT":"0.00002784","REF_FRAME":"TEME","SITE":"AFETR","ECCENTRICITY":"0.00009050","COUNTRY_CODE":"US","EPHEMERIS_TYPE":"0","MEAN_MOTION":"15.08845597","MEAN_ELEMENT_THEORY":"SGP4","EPOCH":"2023-06-25T16:12:01.245888","OBJECT_TYPE":"PAYLOAD","TLE_LINE2":"2 52369  53.2168 304.4932 0000905  91.7026 268.4070 15.08845597 66760","APOAPSIS":"540.354","SEMIMAJOR_AXIS":"6917.863","TIME_SYSTEM":"UTC","OBJECT_ID":"2022-045AQ","FILE":"3942777","TLE_LINE1":"1 52369U 22045AQ  23176.67501442  .00002784  00000-0  19291-3 0  9992","NORAD_CAT_ID":"52369","GP_ID":"234553086","RA_OF_ASC_NODE":"304.4932","ELEMENT_SET_NO":"999","MEAN_MOTION_DDOT":"0.0000000000000","MEAN_ANOMALY":"268.4070","ARG_OF_PERICENTER":"91.7026","PERIAPSIS":"539.102","DECAY_DATE":null,"LAUNCH_DATE":"2022-04-29"},{"MEAN_ANOMALY":"248.5046","LAUNCH_DATE":"2022-04-29","ARG_OF_PERICENTER":"111.6062","PERIAPSIS":"538.943","DECAY_DATE":null,"RA_OF_ASC_NODE":"304.5318","MEAN_MOTION_DDOT":"0.0000000000000","ELEMENT_SET_NO":"999","TLE_LINE1":"1 52370U 22045AR  23176.66860611  .00003777  00000-0  25514-3 0  9997","NORAD_CAT_ID":"52370","GP_ID":"234553104","TIME_SYSTEM":"UTC","SEMIMAJOR_AXIS":"6917.830","FILE":"3942778","OBJECT_ID":"2022-045AR","MEAN_ELEMENT_THEORY":"SGP4","EPOCH":"2023-06-25T16:02:47.567904","APOAPSIS":"540.447","OBJECT_TYPE":"PAYLOAD","TLE_LINE2":"2 52370  53.2171 304.5318 0001087 111.6062 248.5046 15.08856506 66763","PERIOD":"95.437","MEAN_MOTION_DOT":"0.00003777","REF_FRAME":"TEME","CENTER_NAME":"EARTH","EPHEMERIS_TYPE":"0","MEAN_MOTION":"15.08856506","ECCENTRICITY":"0.00010870","SITE":"AFETR","COUNTRY_CODE":"US","RCS_SIZE":"LARGE","CLASSIFICATION_TYPE":"U","INCLINATION":"53.2171","BSTAR":"0.00025514000000","REV_AT_EPOCH":"6676","OBJECT_NAME":"STARLINK-3827"},{"TLE_LINE1":"1 52371U 22045AS  23176.66493181  .00001296  00000-0  99465-4 0  9993","NORAD_CAT_ID":"52371","GP_ID":"234552606","TIME_SYSTEM":"UTC","SEMIMAJOR_AXIS":"6917.863","FILE":"3942778","OBJECT_ID":"2022-045AS","MEAN_ANOMALY":"279.1800","LAUNCH_DATE":"2022-04-29","ARG_OF_PERICENTER":"80.9292","PERIAPSIS":"539.115","DECAY_DATE":null,"RA_OF_ASC_NODE":"304.5454","MEAN_MOTION_DDOT":"0.0000000000000","ELEMENT_SET_NO":"999","RCS_SIZE":"LARGE","CLASSIFICATION_TYPE":"U","INCLINATION":"53.2167","BSTAR":"0.00009946500000","REV_AT_EPOCH":"6675","OBJECT_NAME":"STARLINK-3798","MEAN_ELEMENT_THEORY":"SGP4","EPOCH":"2023-06-25T15:57:30.108384","APOAPSIS":"540.341","TLE_LINE2":"2 52371  53.2167 304.5454 0000886  80.9292 279.1800 15.08845629 66750","OBJECT_TYPE":"PAYLOAD","PERIOD":"95.437","MEAN_MOTION_DOT":"0.00001296","REF_FRAME":"TEME","CENTER_NAME":"EARTH","EPHEMERIS_TYPE":"0","MEAN_MOTION":"15.08845629","SITE":"AFETR","ECCENTRICITY":"0.00008860","COUNTRY_CODE":"US"},{"ELEMENT_SET_NO":"999","MEAN_MOTION_DDOT":"0.0000000000000","RA_OF_ASC_NODE":"304.5727","ARG_OF_PERICENTER":"93.8834","PERIAPSIS":"539.011","DECAY_DATE":null,"LAUNCH_DATE":"2022-04-29","MEAN_ANOMALY":"266.2276","OBJECT_ID":"2022-045AT","FILE":"3942782","SEMIMAJOR_AXIS":"6917.855","TIME_SYSTEM":"UTC","NORAD_CAT_ID":"52372","GP_ID":"234553111","TLE_LINE1":"1 52372U 22045AT  23176.65661532  .00008458  00000-0  54874-3 0  9991","SITE":"AFETR","ECCENTRICITY":"0.00010250","COUNTRY_CODE":"US","EPHEMERIS_TYPE":"0","MEAN_MOTION":"15.08848296","CENTER_NAME":"EARTH","PERIOD":"95.437","REF_FRAME":"TEME","MEAN_MOTION_DOT":"0.00008458","TLE_LINE2":"2 52372  53.2169 304.5727 0001025  93.8834 266.2276 15.08848296 66754","OBJECT_TYPE":"PAYLOAD","APOAPSIS":"540.429","MEAN_ELEMENT_THEORY":"SGP4","EPOCH":"2023-06-25T15:45:31.563648","REV_AT_EPOCH":"6675","OBJECT_NAME":"STARLINK-3796","INCLINATION":"53.2169","BSTAR":"0.00054874000000","CLASSIFICATION_TYPE":"U","RCS_SIZE":"LARGE"}];
